NORAD_CAT_ID,OBJECT_NAME,OBJECT_TYPE,EPOCH,MEAN_MOTION,ECCENTRICITY,INCLINATION,RA_OF_ASC_NODE,ARG_OF_PERICENTER,MEAN_ANOMALY,BSTAR,MEAN_MOTION_DOT,MEAN_MOTION_DDOT,TLE_LINE0,TLE_LINE1,TLE_LINE2,SEMIMAJOR_AXIS,PERIOD,APOGEE,PERIGEE,DECAYED
54002.0,STARLINK-5109,PAYLOAD,2023-10-23 18:58:43,15.0884299,0.0001469,53.2154,140.0097,82.1822,277.9336,0.00049013,7.522e-05,0.0,0 STARLINK-5109,1 54002U 22125AQ  23296.79078478  .00007522  00000-0  49013-3 0  9991,2 54002  53.2154 140.0097 0001469  82.1822 277.9336 15.08842990 58632,6917.871,95.437,540.752,538.72,0.0
54002.0,STARLINK-5109,PAYLOAD,2023-10-23 20:34:06,15.08844487,0.0001469,53.2156,139.7123,82.2162,277.8997,0.00053011,8.16e-05,0.0,0 STARLINK-5109,1 54002U 22125AQ  23296.85702457  .00008160  00000-0  53011-3 0  9991,2 54002  53.2156 139.7123 0001469  82.2162 277.8997 15.08844487 58597,6917.867,95.437,540.748,538.715,0.0
54002.0,STARLINK-5109,PAYLOAD,2023-10-24 14:03:21,15.08850196,0.0001436,53.2154,136.4404,80.564,279.5514,0.0003563,5.389e-05,0.0,0 STARLINK-5109,1 54002U 22125AQ  23297.58566124  .00005389  00000-0  35630-3 0  9998,2 54002  53.2154 136.4404 0001436  80.5640 279.5514 15.08850196 58708,6917.849,95.437,540.708,538.721,0.0
54002.0,STARLINK-5109,PAYLOAD,2023-10-25 13:54:07,15.0884494,0.0001563,53.2151,131.98,90.9757,269.1414,4.2467e-05,3.88e-06,0.0,0 STARLINK-5109,1 54002U 22125AQ  23298.57925758  .00000388  00000-0  42467-4 0  9991,2 54002  53.2151 131.9800 0001563  90.9757 269.1414 15.08844940 58906,6917.865,95.437,540.812,538.649,0.0
54002.0,STARLINK-5109,PAYLOAD,2023-10-25 21:51:03,15.08845779,0.00014,53.2149,130.493,87.7373,272.3779,0.00015338,2.154e-05,0.0,0 STARLINK-5109,1 54002U 22125AQ  23298.91045672  .00002154  00000-0  15338-3 0  9996,2 54002  53.2149 130.4930 0001400  87.7373 272.3779 15.08845779 58900,6917.863,95.437,540.696,538.759,0.0
54002.0,STARLINK-5109,PAYLOAD,2023-10-26 12:09:31,15.08842402,0.000151,53.2148,127.8167,86.1951,273.9214,7.5667e-05,9.17e-06,0.0,0 STARLINK-5109,1 54002U 22125AQ  23299.50661805  .00000917  00000-0  75667-4 0  9991,2 54002  53.2148 127.8167 0001510  86.1951 273.9214 15.08842402 58998,6917.873,95.437,540.783,538.693,0.0
54002.0,STARLINK-5109,PAYLOAD,2023-10-26 18:31:04,15.08843975,0.0001396,53.2147,126.627,87.8684,272.2468,0.00016655,2.364e-05,0.0,0 STARLINK-5109,1 54002U 22125AQ  23299.77157767  .00002364  00000-0  16655-3 0  9996,2 54002  53.2147 126.6270 0001396  87.8684 272.2468 15.08843975 59082,6917.868,95.437,540.699,538.768,0.0
54002.0,STARLINK-5109,PAYLOAD,2023-10-26 21:41:50,15.08847975,0.0001376,53.2147,126.0322,87.6056,272.5093,0.0002789,4.154e-05,0.0,0 STARLINK-5109,1 54002U 22125AQ  23299.90405650  .00004154  00000-0  27890-3 0  9990,2 54002  53.2147 126.0322 0001376  87.6056 272.5093 15.08847975 59051,6917.856,95.437,540.673,538.769,0.0
54002.0,STARLINK-5109,PAYLOAD,2023-10-27 12:00:18,15.08842869,0.0001376,53.2145,123.3557,89.8735,270.2415,0.00017845,2.553e-05,0.0,0 STARLINK-5109,1 54002U 22125AQ  23300.50021788  .00002553  00000-0  17845-3 0  9995,2 54002  53.2145 123.3557 0001376  89.8735 270.2415 15.08842869 59147,6917.872,95.437,540.689,538.785,0.0
54002.0,STARLINK-5109,PAYLOAD,2023-10-27 18:21:51,15.0884071,0.0001384,53.2148,122.1662,89.5332,270.5819,0.0001223,1.659e-05,0.0,0 STARLINK-5109,1 54002U 22125AQ  23300.76517922  .00001659  00000-0  12230-3 0  9992,2 54002  53.2148 122.1662 0001384  89.5332 270.5819 15.08840710 59237,6917.878,95.438,540.701,538.786,0.0
54002.0,STARLINK-5109,PAYLOAD,2023-10-27 21:32:37,15.08835158,0.0001336,53.2148,121.5715,90.4106,269.7039,-1.0713e-06,-3.05e-06,0.0,0 STARLINK-5109,1 54002U 22125AQ  23300.89766130 -.00000305  00000-0 -10713-5 0  9998,2 54002  53.2148 121.5715 0001336  90.4106 269.7039 15.08835158 59207,6917.895,95.438,540.684,538.836,0.0
54002.0,STARLINK-5109,PAYLOAD,2023-10-28 05:29:33,15.08833291,0.0001332,53.2153,120.0847,89.9219,270.1926,5.5067e-05,5.88e-06,0.0,0 STARLINK-5109,1 54002U 22125AQ  23301.22886492  .00000588  00000-0  55067-4 0  9991,2 54002  53.2153 120.0847 0001332  89.9219 270.1926 15.08833291 59305,6917.901,95.438,540.687,538.844,0.0
54002.0,STARLINK-5109,PAYLOAD,2023-10-28 11:51:06,15.08834607,0.0001287,53.2153,118.8956,88.9321,271.1818,3.3296e-05,2.42e-06,0.0,0 STARLINK-5109,1 54002U 22125AQ  23301.49382523  .00000242  00000-0  33296-4 0  9993,2 54002  53.2153 118.8956 0001287  88.9321 271.1818 15.08834607 59294,6917.897,95.438,540.652,538.872,0.0
54002.0,STARLINK-5109,PAYLOAD,2023-10-28 18:12:38,15.08838575,0.0001279,53.2154,117.7063,89.0227,271.0912,0.00010029,1.309e-05,0.0,0 STARLINK-5109,1 54002U 22125AQ  23301.75878394  .00001309  00000-0  10029-3 0  9991,2 54002  53.2154 117.7063 0001279  89.0227 271.0912 15.08838575 59337,6917.885,95.438,540.635,538.865,0.0
54002.0,STARLINK-5109,PAYLOAD,2023-10-29 05:20:20,15.08845993,0.0001267,53.2154,115.6244,89.5329,270.5808,0.00016277,2.304e-05,0.0,0 STARLINK-5109,1 54002U 22125AQ  23302.22246050  .00002304  00000-0  16277-3 0  9999,2 54002  53.2154 115.6244 0001267  89.5329 270.5808 15.08845993 59453,6917.862,95.437,540.604,538.851,0.0
54002.0,STARLINK-5109,PAYLOAD,2023-10-29 14:52:39,15.08846386,0.0001267,53.2157,113.8401,89.701,270.4127,0.00020701,3.009e-05,0.0,0 STARLINK-5109,1 54002U 22125AQ  23302.61990004  .00003009  00000-0  20701-3 0  9997,2 54002  53.2157 113.8401 0001267  89.7010 270.4127 15.08846386 59461,6917.861,95.437,540.602,538.849,0.0
54002.0,STARLINK-5109,PAYLOAD,2023-10-29 21:14:11,15.08852691,0.0001374,53.2148,112.6503,90.8317,269.2833,0.00034168,5.156e-05,0.0,0 STARLINK-5109,1 54002U 22125AQ  23302.88485663  .00005156  00000-0  34168-3 0  9993,2 54002  53.2148 112.6503 0001374  90.8317 269.2833 15.08852691 59504,6917.842,95.437,540.657,538.756,0.0
54002.0,STARLINK-5109,PAYLOAD,2023-10-30 17:54:13,15.08835682,0.0001362,53.2158,108.7815,98.7175,261.3972,6.1302e-05,6.88e-06,0.0,0 STARLINK-5109,1 54002U 22125AQ  23303.74598457  .00000688  00000-0  61302-4 0  9991,2 54002  53.2158 108.7815 0001362  98.7175 261.3972 15.08835682 59680,6917.894,95.438,540.701,538.816,0.0
54002.0,STARLINK-5109,PAYLOAD,2023-10-30 21:04:59,15.08836546,0.0001498,53.2161,108.1871,95.9336,264.1827,-6.2292e-05,-1.279e-05,0.0,0 STARLINK-5109,1 54002U 22125AQ  23303.87846398 -.00001279  00000-0 -62292-4 0  9993,2 54002  53.2161 108.1871 0001498  95.9336 264.1827 15.08836546 59655,6917.891,95.438,540.792,538.72,0.0
54002.0,STARLINK-5109,PAYLOAD,2023-10-31 14:34:13,15.0884131,0.0001487,53.2176,104.9168,98.2446,261.8714,-3.808e-06,-3.49e-06,0.0,0 STARLINK-5109,1 54002U 22125AQ  23304.60710415 -.00000349  00000-0 -38080-5 0  9991,2 54002  53.2176 104.9168 0001487  98.2446 261.8714 15.08841310 59766,6917.876,95.437,540.77,538.713,0.0
54002.0,STARLINK-5109,PAYLOAD,2023-10-31 17:44:59,15.08843174,0.0001411,53.2166,104.3245,91.0914,269.024,2.5218e-05,1.13e-06,0.0,0 STARLINK-5109,1 54002U 22125AQ  23304.73958191  .00000113  00000-0  25218-4 0  9995,2 54002  53.2166 104.3245 0001411  91.0914 269.0240 15.08843174 59789,6917.871,95.437,540.712,538.76,0.0
54002.0,STARLINK-5109,PAYLOAD,2023-11-01 03:17:18,15.08844567,0.0001352,53.2171,102.5398,89.6831,270.4316,3.8575e-07,-2.82e-06,0.0,0 STARLINK-5109,1 54002U 22125AQ  23305.13702017 -.00000282  00000-0  38575-6 0  9994,2 54002  53.2171 102.5398 0001352  89.6831 270.4316 15.08844567 59898,6917.866,95.437,540.667,538.796,0.0
54002.0,STARLINK-5109,PAYLOAD,2023-11-01 09:38:51,15.08835168,0.000151,53.2176,101.3521,96.6271,263.4893,8.4439e-05,1.056e-05,0.0,0 STARLINK-5109,1 54002U 22125AQ  23305.40198667  .00001056  00000-0  84439-4 0  9991,2 54002  53.2176 101.3521 0001510  96.6271 263.4893 15.08835168 59934,6917.895,95.438,540.805,538.716,0.0
54002.0,STARLINK-5109,PAYLOAD,2023-11-01 14:25:01,15.0882985,0.0001422,53.2167,100.4594,95.9584,264.157,8.3573e-05,1.042e-05,0.0,0 STARLINK-5109,1 54002U 22125AQ  23305.60070980  .00001042  00000-0  83573-4 0  9993,2 54002  53.2167 100.4594 0001422  95.9584 264.1570 15.08829850 59914,6917.911,95.438,540.76,538.793,0.0
54002.0,STARLINK-5109,PAYLOAD,2023-11-01 17:35:47,15.08835743,0.0001372,53.2168,99.864,91.3547,268.7603,9.4208e-05,1.212e-05,0.0,0 STARLINK-5109,1 54002U 22125AQ  23305.73318647  .00001212  00000-0  94208-4 0  9998,2 54002  53.2168  99.8640 0001372  91.3547 268.7603 15.08835743 59938,6917.893,95.438,540.708,538.809,0.0
54002.0,STARLINK-5109,PAYLOAD,2023-11-02 03:08:05,15.08851355,0.0001074,53.2166,98.0805,97.1056,263.0058,-9.4494e-05,-1.792e-05,0.0,0 STARLINK-5109,1 54002U 22125AQ  23306.13062105 -.00001792  00000-0 -94494-4 0  9990,2 54002  53.2166  98.0805 0001074  97.1056 263.0058 15.08851355 60041,6917.846,95.437,540.454,538.968,0.0
54002.0,STARLINK-5109,PAYLOAD,2023-11-02 14:15:48,15.08839722,0.0001317,53.2167,95.9989,90.8541,269.2602,7.4656e-05,9e-06,0.0,0 STARLINK-5109,1 54002U 22125AQ  23306.59430657  .00000900  00000-0  74656-4 0  9997,2 54002  53.2167  95.9989 0001317  90.8541 269.2602 15.08839722 60069,6917.881,95.438,540.657,538.835,0.0
54002.0,STARLINK-5109,PAYLOAD,2023-11-02 19:01:56,15.08848447,0.0001359,53.2166,95.1064,92.4984,267.6164,0.00014048,1.949e-05,0.0,0 STARLINK-5109,1 54002U 22125AQ  23306.79301945  .00001949  00000-0  14048-3 0  9998,2 54002  53.2166  95.1064 0001359  92.4984 267.6164 15.08848447 60091,6917.855,95.437,540.66,538.779,0.0
54002.0,STARLINK-5109,PAYLOAD,2023-11-03 02:58:53,15.08840817,0.0001452,53.2175,93.6172,80.3391,279.7765,4.1671e-05,3.75e-06,0.0,0 STARLINK-5109,1 54002U 22125AQ  23307.12422629  .00000375  00000-0  41671-4 0  9994,2 54002  53.2175  93.6172 0001452  80.3391 279.7765 15.08840817 60191,6917.878,95.438,540.747,538.738,0.0
54002.0,STARLINK-5109,PAYLOAD,2023-11-03 14:06:35,15.08831422,0.00017,53.2177,91.5382,79.5609,280.5575,4.6286e-05,4.49e-06,0.0,0 STARLINK-5109,1 54002U 22125AQ  23307.58791526  .00000449  00000-0  46286-4 0  9998,2 54002  53.2177  91.5382 0001700  79.5609 280.5575 15.08831422 60215,6917.907,95.438,540.948,538.596,0.0
